[
  {
    "name": "PLEIADES NEO 3",
    "line1": "1 48268U 21034A   25362.93626618 -.00000638  00000+0 -74530-4 0  9998",
    "line2": "2 48268  97.8941  75.1444 0001361  87.0679 273.0690 14.81671466252449",
    "catNr": 48268
  },
  {
    "name": "PLEIADES NEO 4",
    "line1": "1 49070U 21073E   25362.97002125 -.00000087  00000+0 -44975-5 0  9997",
    "line2": "2 49070  97.8941  75.1736 0001339  90.4698 269.6668 14.81672651236163",
    "catNr": 49070
  }
]